     2.100          NAVIGATION                              RINEX VERSION / TYPE
fic2rin                                 09/23/2013 00:18:38 PGM / RUN BY / DATE
                                                            END OF HEADER
22 13  9 22  8  0  0.0  .185998622328D-03  .193267624127D-11  .000000000000D+00
     .610000000000D+02  .823437500000D+02  .507485424519D-08 -.422789697379D+00
     .429339706898D-05  .677938456647D-02  .114794820547D-04  .515365760231D+04
     .288000000000D+05 -.204890966415D-07 -.254833808012D+01  .106170773506D-06
     .924818128696D+00  .141218750000D+03 -.203625751297D+01 -.839320675361D-08
     .155006456641D-09  .100000000000D+01  .175900000000D+04  .000000000000D+00
     .240000000000D+01  .000000000000D+00 -.172294676304D-07  .610000000000D+02
     .216060000000D+05  .400000000000D+01
23 13  9 22  8  0  0.0  .459435395896D-04 -.341060513165D-11  .000000000000D+00
     .880000000000D+02  .613125000000D+02  .505699635848D-08 -.262492078827D+01
     .306591391563D-05  .889100588392D-02  .330619513988D-05  .515365524101D+04
     .288000000000D+05 -.115483999252D-06 -.148877522800D+01 -.189989805222D-06
     .954083436216D+00  .317250000000D+03 -.282254431425D+01 -.847535303247D-08
     .286440502825D-09  .100000000000D+01  .175900000000D+04  .000000000000D+00
     .240000000000D+01  .000000000000D+00 -.200234353542D-07  .880000000000D+02
     .216060000000D+05  .400000000000D+01
24 13  9 22  8  0  0.0 -.142059288919D-04 -.682121026330D-12  .000000000000D+00
     .124000000000D+03 -.876250000000D+02  .472876840076D-08  .305304013028D+01
    -.449828803539D-05  .105926406104D-02  .646710395813D-05  .515365668488D+04
     .288000000000D+05 -.782310962677D-07 -.461898660276D+00 -.130385160446D-07
     .958546094149D+00  .252468750000D+03  .168436212479D+00 -.821677083292D-08
    -.329299430929D-09  .100000000000D+01  .175900000000D+04  .000000000000D+00
     .340000000000D+01  .000000000000D+00  .325962901115D-08  .124000000000D+03
     .216060000000D+05  .400000000000D+01
25 13  9 22  8  0  0.0  .149917323142D-03  .409272615798D-11  .000000000000D+00
     .360000000000D+02 -.681250000000D+01  .405516891406D-08  .799556332845D+00
    -.339001417160D-06  .274714455009D-02  .118575990200D-04  .515372653198D+04
     .288000000000D+05 -.149011611938D-07  .588383262536D+00  .409781932831D-07
     .974223152922D+00  .155906250000D+03  .736965830476D+00 -.779175312922D-08
     .192150860997D-09  .100000000000D+01  .175900000000D+04  .000000000000D+00
     .240000000000D+01  .000000000000D+00  .558793544769D-08  .360000000000D+02
     .216060000000D+05  .400000000000D+01
26 13  9 22  8  0  0.0  .202095136046D-03  .185309545486D-10  .000000000000D+00
     .420000000000D+02  .421875000000D+02  .448375819510D-08 -.261759394593D+01
     .200793147087D-05  .210643947357D-01  .242143869400D-05  .515368504524D+04
     .288000000000D+05  .342726707458D-06 -.140559753008D+01  .186264514923D-08
     .977295574935D+00  .338531250000D+03  .125179624181D+01 -.797461788913D-08
     .292869342041D-09  .100000000000D+01  .175900000000D+04  .000000000000D+00
     .240000000000D+01  .000000000000D+00 -.558793544769D-08  .420000000000D+02
     .216060000000D+05  .400000000000D+01
27 13  9 22  8  0  0.0 -.394512899220D-04 -.443378667114D-11  .000000000000D+00
     .500000000000D+01  .202500000000D+02  .482270088485D-08 -.216675698272D+01
     .114180147648D-05  .440391013399D-03  .522658228874D-05  .515365756226D+04
     .288000000000D+05 -.204890966415D-07  .163793127446D+01 -.391155481339D-07
     .960633480755D+00  .280437500000D+03  .917844308974D+00 -.825570102594D-08
     .231438211759D-09  .100000000000D+01  .175900000000D+04  .000000000000D+00
     .240000000000D+01  .000000000000D+00  .186264514923D-08  .500000000000D+01
     .216060000000D+05  .400000000000D+01
28 13  9 22  8  0  0.0  .294596422464D-03  .318323145621D-11  .000000000000D+00
     .210000000000D+02  .468750000000D+00  .396087927223D-08 -.565510067307D+00
     .707805156708D-07  .187581614591D-01  .109877437353D-04  .515365532684D+04
     .288000000000D+05 -.186264514923D-06  .652499481668D+00  .130385160446D-06
     .984513725383D+00  .184562500000D+03 -.176261594035D+01 -.803926343902D-08
     .244653047924D-09  .100000000000D+01  .175900000000D+04  .000000000000D+00
     .240000000000D+01  .000000000000D+00 -.107102096081D-07  .210000000000D+02
     .216060000000D+05  .400000000000D+01
29 13  9 22  8  0  0.0  .472705811262D-03  .318323145621D-11  .000000000000D+00
     .700000000000D+01  .186562500000D+02  .480734310228D-08  .147882287927D+01
     .897794961929D-06  .146444630809D-02  .471435487270D-05  .515356844521D+04
     .288000000000D+05  .745058059692D-07  .169078571322D+01  .558793544769D-08
     .966694819954D+00  .291093750000D+03 -.985162947945D+00 -.825105797540D-08
     .187150652719D-09  .100000000000D+01  .175900000000D+04  .000000000000D+00
     .240000000000D+01  .000000000000D+00 -.931322574615D-08  .700000000000D+01
     .216060000000D+05  .400000000000D+01
31 13  9 22  8  0  0.0  .326390378177D-03  .795807864051D-12  .000000000000D+00
     .360000000000D+02 -.997812500000D+02  .426803492364D-08  .214285172658D+01
    -.493228435516D-05  .794375827536D-02  .670738518238D-05  .515367454529D+04
     .288000000000D+05  .152736902237D-06 -.426377309401D+00  .670552253723D-07
     .980076943544D+00  .258062500000D+03 -.734147482224D+00 -.799783314185D-08
    -.517521556850D-09  .100000000000D+01  .175900000000D+04  .000000000000D+00
     .240000000000D+01  .000000000000D+00 -.130385160446D-07  .360000000000D+02
     .216060000000D+05  .400000000000D+01
32 13  9 22  8  0  0.0 -.546848867089D-03  .306954461848D-11  .000000000000D+00
     .890000000000D+02  .855000000000D+02  .443375611231D-08  .260392518842D+01
     .441446900368D-05  .116040810244D-01  .116862356663D-04  .515360256767D+04
     .288000000000D+05 -.102445483208D-06 -.246189539921D+01  .212341547012D-06
     .948932539695D+00  .143031250000D+03 -.291180436034D+00 -.794104506212D-08
     .157863718515D-09  .100000000000D+01  .175900000000D+04  .000000000000D+00
     .240000000000D+01  .000000000000D+00 -.279396772385D-08  .890000000000D+02
     .216060000000D+05  .400000000000D+01
24 13  9 22  7 59 44.0 -.142036005855D-04 -.682121026330D-12  .000000000000D+00
     .800000000000D+01 -.876250000000D+02  .472876840076D-08  .305071140900D+01
    -.449828803539D-05  .105926778633D-02  .646710395813D-05  .515365669632D+04
     .287840000000D+05 -.782310962677D-07 -.461898537391D+00 -.130385160446D-07
     .958546107316D+00  .252468750000D+03  .168431061544D+00 -.821677083292D-08
    -.329299430929D-09  .100000000000D+01  .175900000000D+04  .000000000000D+00
     .240000000000D+01  .000000000000D+00  .325962901115D-08  .800000000000D+01
     .223860000000D+05  .400000000000D+01
30 13  9 22  8  0  0.0  .181836076081D-04 -.511590769747D-10  .000000000000D+00
     .107000000000D+03  .294687500000D+02  .531129266523D-08  .103334917855D+01
     .131502747536D-05  .834339845460D-02  .493414700031D-05  .515361496353D+04
     .288000000000D+05  .203028321266D-06  .155456699012D+01 -.894069671631D-07
     .944321812508D+00  .272843750000D+03 -.755827527319D+00 -.854535594838D-08
     .265368196508D-09  .100000000000D+01  .175900000000D+04  .000000000000D+00
     .685000000000D+01  .630000000000D+02 -.232830643654D-08  .107000000000D+03
     .228960000000D+05  .400000000000D+01
30 13  9 22  7 59 44.0  .181682407856D-04 -.513864506502D-10  .000000000000D+00
     .200000000000D+02  .294687500000D+02  .531129266523D-08  .103101527854D+01
     .131502747536D-05  .834339903668D-02  .493414700031D-05  .515361492157D+04
     .287840000000D+05  .203028321266D-06  .155456713202D+01 -.894069671631D-07
     .944321809582D+00  .272843750000D+03 -.755827130868D+00 -.854535594838D-08
     .265368196508D-09  .100000000000D+01  .175900000000D+04  .000000000000D+00
     .240000000000D+01  .630000000000D+02 -.232830643654D-08  .200000000000D+02
     .254460000000D+05  .400000000000D+01
20 13  9 22  7 59 44.0  .124139245600D-03  .261479726760D-11  .000000000000D+00
     .280000000000D+02  .573125000000D+02  .495663503517D-08  .636658789657D+00
     .285916030407D-05  .555822229944D-02  .119693577290D-04  .515368494225D+04
     .287840000000D+05 -.875443220139D-07 -.260401271773D+01 -.204890966415D-07
     .927939207364D+00  .129687500000D+03  .128781083161D+01 -.833641867387D-08
     .300012496725D-10  .100000000000D+01  .175900000000D+04  .000000000000D+00
     .240000000000D+01  .000000000000D+00 -.791624188423D-08  .280000000000D+02
     .259860000000D+05  .400000000000D+01
23 13  9 22  7 59 44.0  .459426082671D-04 -.352429196937D-11  .000000000000D+00
     .330000000000D+02  .613125000000D+02  .505699635848D-08 -.262725477020D+01
     .306591391563D-05  .889100553468D-02  .330619513988D-05  .515365523911D+04
     .287840000000D+05 -.115483999252D-06 -.148877507147D+01 -.189989805222D-06
     .954083423050D+00  .317250000000D+03 -.282254406556D+01 -.847571019021D-08
     .286083345091D-09  .100000000000D+01  .175900000000D+04  .000000000000D+00
     .240000000000D+01  .000000000000D+00 -.200234353542D-07  .330000000000D+02
     .268560000000D+05  .400000000000D+01
20 13  9 22  9 59 44.0  .124158337712D-03  .261479726760D-11  .000000000000D+00
     .290000000000D+02  .656250000000D+02  .491841915761D-08  .168705980132D+01
     .335462391376D-05  .555793370586D-02  .121854245663D-04  .515368258286D+04
     .359840000000D+05 -.558793544769D-07 -.260407284513D+01 -.154599547386D-06
     .927939878843D+00  .124625000000D+03  .128758753033D+01 -.823784313923D-08
     .678599694973D-10  .100000000000D+01  .175900000000D+04  .000000000000D+00
     .240000000000D+01  .000000000000D+00 -.791624188423D-08  .290000000000D+02
     .288060000000D+05  .400000000000D+01
